NORAD_CAT_ID,OBJECT_NAME,OBJECT_TYPE,EPOCH,MEAN_MOTION,ECCENTRICITY,INCLINATION,RA_OF_ASC_NODE,ARG_OF_PERICENTER,MEAN_ANOMALY,BSTAR,MEAN_MOTION_DOT,MEAN_MOTION_DDOT,TLE_LINE0,TLE_LINE1,TLE_LINE2,SEMIMAJOR_AXIS,PERIOD,APOGEE,PERIGEE,DECAYED
54078.0,STARLINK-5138,PAYLOAD,2024-04-30 07:33:09,15.08845188,0.0001351,53.2159,129.4193,81.7873,278.3273,0.00031617,4.748e-05,0.0,0 STARLINK-5138,1 54078U 22136AD  24121.31469061  .00004748  00000-0  31617-3 0  9992,2 54078  53.2159 129.4193 0001351  81.7873 278.3273 15.08845188 84714,6917.865,95.437,540.664,538.795,0.0
54078.0,STARLINK-5138,PAYLOAD,2024-04-30 17:05:28,15.08842604,0.0001323,53.2155,127.635,79.2675,280.8466,0.00015688,2.21e-05,0.0,0 STARLINK-5138,1 54078U 22136AD  24121.71213116  .00002210  00000-0  15688-3 0  9996,2 54078  53.2155 127.6350 0001323  79.2675 280.8466 15.08842604 84774,6917.872,95.437,540.653,538.822,0.0
54078.0,STARLINK-5138,PAYLOAD,2024-05-01 07:23:56,15.08840267,0.0001349,53.2167,124.9594,84.5158,275.5988,8.2065e-05,1.018e-05,0.0,0 STARLINK-5138,1 54078U 22136AD  24122.30829573  .00001018  00000-0  82065-4 0  9991,2 54078  53.2167 124.9594 0001349  84.5158 275.5988 15.08840267 85347,6917.88,95.438,540.678,538.811,0.0
54078.0,STARLINK-5138,PAYLOAD,2024-05-01 16:56:15,15.08843428,0.0001384,53.217,123.1754,85.296,274.819,5.9222e-05,6.55e-06,0.0,0 STARLINK-5138,1 54078U 22136AD  24122.70573268  .00000655  00000-0  59222-4 0  9997,2 54078  53.2170 123.1754 0001384  85.2960 274.8190 15.08843428 84920,6917.87,95.437,540.692,538.777,0.0
54078.0,STARLINK-5138,PAYLOAD,2024-05-02 05:39:19,15.08847801,0.0001379,53.2168,120.7963,85.8789,274.2361,7.6111e-05,9.24e-06,0.0,0 STARLINK-5138,1 54078U 22136AD  24123.23564759  .00000924  00000-0  76111-4 0  9996,2 54078  53.2168 120.7963 0001379  85.8789 274.2361 15.08847801 85486,6917.857,95.437,540.676,538.768,0.0
54078.0,STARLINK-5138,PAYLOAD,2024-05-02 10:25:29,15.08849288,0.0001382,53.2166,119.904,84.9669,275.1481,8.0836e-05,9.99e-06,0.0,0 STARLINK-5138,1 54078U 22136AD  24123.43436539  .00000999  00000-0  80836-4 0  9993,2 54078  53.2166 119.9040 0001382  84.9669 275.1481 15.08849288 85036,6917.852,95.437,540.673,538.761,0.0
54078.0,STARLINK-5138,PAYLOAD,2024-05-02 16:47:02,15.088422,0.0001346,53.2164,118.7142,86.6897,273.4249,4.8718e-05,4.88e-06,0.0,0 STARLINK-5138,1 54078U 22136AD  24123.69932974  .00000488  00000-0  48718-4 0  9991,2 54078  53.2164 118.7142 0001346  86.6897 273.4249 15.08842200 85553,6917.874,95.437,540.67,538.808,0.0
54078.0,STARLINK-5138,PAYLOAD,2024-05-03 08:40:53,15.08845006,0.0001376,53.2162,115.7393,86.4001,273.7149,0.00011016,1.466e-05,0.0,0 STARLINK-5138,1 54078U 22136AD  24124.36172652  .00001466  00000-0  11016-3 0  9992,2 54078  53.2162 115.7393 0001376  86.4001 273.7149 15.08845006 85171,6917.865,95.437,540.682,538.778,0.0
54078.0,STARLINK-5138,PAYLOAD,2024-05-03 16:37:49,15.08837934,0.000146,53.2165,114.2534,87.3922,272.7237,3.0003e-05,1.9e-06,0.0,0 STARLINK-5138,1 54078U 22136AD  24124.69293320  .00000190  00000-0  30003-4 0  9995,2 54078  53.2165 114.2534 0001460  87.3922 272.7237 15.08837934 85708,6917.887,95.438,540.762,538.742,0.0
54078.0,STARLINK-5138,PAYLOAD,2024-05-03 22:59:22,15.08837253,0.0001482,53.2163,113.0647,87.7596,272.3566,6.8857e-07,-2.77e-06,0.0,0 STARLINK-5138,1 54078U 22136AD  24124.95789479 -.00000277  00000-0  68857-6 0  9996,2 54078  53.2163 113.0647 0001482  87.7596 272.3566 15.08837253 85269,6917.889,95.438,540.779,538.729,0.0
54078.0,STARLINK-5138,PAYLOAD,2024-05-04 08:31:41,15.08834765,0.0001445,53.2162,111.278,89.9109,270.2049,-2.565e-05,-6.96e-06,0.0,0 STARLINK-5138,1 54078U 22136AD  24125.35533803 -.00000696  00000-0 -25650-4 0  9997,2 54078  53.2162 111.2780 0001445  89.9109 270.2049 15.08834765 85807,6917.896,95.438,540.761,538.762,0.0
54078.0,STARLINK-5138,PAYLOAD,2024-05-05 05:11:41,15.08835112,0.0001407,53.2162,107.4136,95.2779,264.8373,0.00021877,3.195e-05,0.0,0 STARLINK-5138,1 54078U 22136AD  24126.21645348  .00003195  00000-0  21877-3 0  9992,2 54078  53.2162 107.4136 0001407  95.2779 264.8373 15.08835112 85930,6917.895,95.438,540.734,538.787,0.0
54078.0,STARLINK-5138,PAYLOAD,2024-05-05 22:40:56,15.08837262,0.0001444,53.2164,104.1424,95.2351,264.8806,0.00013072,1.793e-05,0.0,0 STARLINK-5138,1 54078U 22136AD  24126.94509353  .00001793  00000-0  13072-3 0  9997,2 54078  53.2164 104.1424 0001444  95.2351 264.8806 15.08837262 85561,6917.889,95.438,540.753,538.755,0.0
54078.0,STARLINK-5138,PAYLOAD,2024-05-06 08:13:14,15.08843958,0.0001427,53.2164,102.3579,95.8085,264.307,0.0001509,2.115e-05,0.0,0 STARLINK-5138,1 54078U 22136AD  24127.34252995  .00002115  00000-0  15090-3 0  9990,2 54078  53.2164 102.3579 0001427  95.8085 264.3070 15.08843958 86101,6917.868,95.437,540.72,538.746,0.0
54078.0,STARLINK-5138,PAYLOAD,2024-05-07 08:04:01,15.08846182,0.0001311,53.216,97.8985,90.916,269.1983,6.922e-05,8.14e-06,0.0,0 STARLINK-5138,1 54078U 22136AD  24128.33612984  .00000814  00000-0  69220-4 0  9997,2 54078  53.2160  97.8985 0001311  90.9160 269.1983 15.08846182 85778,6917.861,95.437,540.633,538.82,0.0
54078.0,STARLINK-5138,PAYLOAD,2024-05-07 20:47:07,15.08835051,0.0001355,53.217,95.5185,88.4578,271.6569,-3.5877e-05,-8.59e-06,0.0,0 STARLINK-5138,1 54078U 22136AD  24128.86606028 -.00000859  00000-0 -35877-4 0  9999,2 54078  53.2170  95.5185 0001355  88.4578 271.6569 15.08835051 86333,6917.896,95.438,540.698,538.823,0.0
54078.0,STARLINK-5138,PAYLOAD,2024-05-07 22:22:30,15.08834461,0.0001394,53.2169,95.2212,90.0785,270.0367,-3.3454e-05,-8.2e-06,0.0,0 STARLINK-5138,1 54078U 22136AD  24128.93230052 -.00000820  00000-0 -33454-4 0  9994,2 54078  53.2169  95.2212 0001394  90.0785 270.0367 15.08834461 85861,6917.897,95.438,540.727,538.798,0.0
54078.0,STARLINK-5138,PAYLOAD,2024-05-08 14:16:21,15.08841691,0.0001358,53.2175,92.2487,88.855,271.2597,-1.4471e-05,-5.18e-06,0.0,0 STARLINK-5138,1 54078U 22136AD  24129.59469655 -.00000518  00000-0 -14471-4 0  9992,2 54078  53.2175  92.2487 0001358  88.8550 271.2597 15.08841691 85966,6917.875,95.437,540.68,538.801,0.0
54078.0,STARLINK-5138,PAYLOAD,2024-05-09 04:34:50,15.08839447,0.0001366,53.218,89.5732,95.0176,265.0972,3.1111e-05,2.07e-06,0.0,0 STARLINK-5138,1 54078U 22136AD  24130.19085862  .00000207  00000-0  31111-4 0  9997,2 54078  53.2180  89.5732 0001366  95.0176 265.0972 15.08839447 86052,6917.882,95.438,540.692,538.802,0.0
54078.0,STARLINK-5138,PAYLOAD,2024-05-09 14:07:08,15.08844051,0.0001405,53.2186,87.7889,91.002,269.1133,3.4485e-05,2.61e-06,0.0,0 STARLINK-5138,1 54078U 22136AD  24130.58829630  .00000261  00000-0  34485-4 0  9996,2 54078  53.2186  87.7889 0001405  91.0020 269.1133 15.08844051 86117,6917.868,95.437,540.705,538.761,0.0
54078.0,STARLINK-5138,PAYLOAD,2024-05-10 04:25:37,15.088415,0.0001378,53.2191,85.1131,87.1141,273.0009,0.00012611,1.72e-05,0.0,0 STARLINK-5138,1 54078U 22136AD  24131.18445903  .00001720  00000-0  12611-3 0  9997,2 54078  53.2191  85.1131 0001378  87.1141 273.0009 15.08841500 86688,6917.876,95.437,540.694,538.788,0.0
54078.0,STARLINK-5138,PAYLOAD,2024-05-10 06:01:00,15.08845506,0.0001472,53.2193,84.8158,92.9371,267.179,0.00014503,2.021e-05,0.0,0 STARLINK-5138,1 54078U 22136AD  24131.25069598  .00002021  00000-0  14503-3 0  9994,2 54078  53.2193  84.8158 0001472  92.9371 267.1790 15.08845506 86219,6917.864,95.437,540.747,538.71,0.0
54078.0,STARLINK-5138,PAYLOAD,2024-05-11 04:16:22,15.08876733,0.0001475,53.2194,80.6527,96.1473,263.9687,0.00035488,5.37e-05,0.0,0 STARLINK-5138,1 54078U 22136AD  24132.17803384  .00005370  00000-0  35488-3 0  9990,2 54078  53.2194  80.6527 0001475  96.1473 263.9687 15.08876733 86839,6917.768,95.435,540.653,538.613,0.0
54078.0,STARLINK-5138,PAYLOAD,2024-05-11 20:10:13,15.08868209,0.0001964,53.2188,77.6819,75.1256,284.9954,0.0003804,5.776e-05,0.0,0 STARLINK-5138,1 54078U 22136AD  24132.84043795  .00005776  00000-0  38040-3 0  9993,2 54078  53.2188  77.6819 0001964  75.1256 284.9954 15.08868209 86931,6917.794,95.436,541.018,538.301,0.0
54078.0,STARLINK-5138,PAYLOAD,2024-05-12 02:31:50,15.08790579,0.0001076,53.2201,76.4873,104.087,256.0242,-0.00070608,-0.00011492,0.0,0 STARLINK-5138,1 54078U 22136AD  24133.10544096 -.00011492  00000-0 -70608-3 0  9993,2 54078  53.2201  76.4873 0001076 104.0870 256.0242 15.08790579 86970,6918.031,95.441,540.641,539.152,0.0
54078.0,STARLINK-5138,PAYLOAD,2024-05-12 13:39:32,15.0878991,0.0001448,53.2194,74.4024,113.7158,246.3986,-0.00064783,-0.00010569,0.0,0 STARLINK-5138,1 54078U 22136AD  24133.56912927 -.00010569  00000-0 -64783-3 0  9996,2 54078  53.2194  74.4024 0001448 113.7158 246.3986 15.08789910 87049,6918.033,95.441,540.9,538.897,0.0
54078.0,STARLINK-5138,PAYLOAD,2024-05-13 02:22:36,15.08833714,0.0001607,53.2175,72.0262,111.8755,248.2408,-0.00022791,-3.913e-05,0.0,0 STARLINK-5138,1 54078U 22136AD  24134.09903771 -.00003913  00000-0 -22791-3 0  9990,2 54078  53.2175  72.0262 0001607 111.8755 248.2408 15.08833714 87126,6917.9,95.438,540.876,538.653,0.0
54078.0,STARLINK-5138,PAYLOAD,2024-05-13 05:33:22,15.08846265,0.0001449,53.2188,71.4343,100.6703,259.4453,1.3622e-05,-7.1e-07,0.0,0 STARLINK-5138,1 54078U 22136AD  24134.23151275 -.00000071  00000-0  13622-4 0  9995,2 54078  53.2188  71.4343 0001449 100.6703 259.4453 15.08846265 87147,6917.861,95.437,540.729,538.724,0.0
54078.0,STARLINK-5138,PAYLOAD,2024-05-14 02:13:23,15.08842592,0.0001351,53.2185,67.5709,76.994,283.1203,0.0009803,0.00015349,0.0,0 STARLINK-5138,1 54078U 22136AD  24135.09263670  .00015349  00000-0  98030-3 0  9991,2 54078  53.2185  67.5709 0001351  76.9940 283.1203 15.08842592 86792,6917.872,95.437,540.672,538.803,0.0
54078.0,STARLINK-5138,PAYLOAD,2024-05-14 22:53:23,15.08856034,0.0001435,53.2184,63.7029,114.1655,245.9488,0.00027065,4.024e-05,0.0,0 STARLINK-5138,1 54078U 22136AD  24135.95374493  .00004024  00000-0  27065-3 0  9990,2 54078  53.2184  63.7029 0001435 114.1655 245.9488 15.08856034 86927,6917.831,95.437,540.689,538.704,0.0
